[{"OBJECT_NAME":"IRIDIUM 122","OBJECT_ID":"2017-061C","EPOCH":"2026-03-09T22:07:58.507680","MEAN_MOTION":14.34217131,"ECCENTRICITY":0.00019893,"INCLINATION":86.3911,"RA_OF_ASC_NODE":66.6833,"ARG_OF_PERICENTER":88.1776,"MEAN_ANOMALY":271.9648,"EPHEMERIS_TYPE":0,"CLASSIFICATION_TYPE":"U","NORAD_CAT_ID":42957,"ELEMENT_SET_NO":999,"REV_AT_EPOCH":44055,"BSTAR":-1.2173426e-5,"MEAN_MOTION_DOT":-1.4e-7,"MEAN_MOTION_DDOT":0},{"OBJECT_NAME":"SL-16 DEB","OBJECT_ID":"1993-016W","EPOCH":"2026-03-09T14:43:37.706304","MEAN_MOTION":14.42089803,"ECCENTRICITY":0.0057215,"INCLINATION":70.9728,"RA_OF_ASC_NODE":139.0417,"ARG_OF_PERICENTER":48.3192,"MEAN_ANOMALY":70.9698,"EPHEMERIS_TYPE":0,"CLASSIFICATION_TYPE":"U","NORAD_CAT_ID":22612,"ELEMENT_SET_NO":999,"REV_AT_EPOCH":69274,"BSTAR":0.0017066,"MEAN_MOTION_DOT":5.677e-5,"MEAN_MOTION_DDOT":0}]
